CZ-4B R/B               
1 28059U 03049C   16119.19417013  .00000012  00000-0  14904-4 0  9999
2 28059  98.6194 349.4615 0051355  72.4960  37.0636 14.52437763663431
CZ-2C R/B               
1 28222U 04012C   16118.89658866  .00000978  00000-0  65272-4 0  9996
2 28222  97.4696  79.0390 0049693 167.9413 252.3518 15.08374488657955
SL-16 R/B               
1 28353U 04021B   16118.87416803 -.00000303  00000-0 -13407-3 0  9998
2 28353  71.0016 229.4255 0002921 127.0382 233.1007 14.14172959613430
CZ-2C R/B               
1 28480U 04046B   16118.96390036  .00000024  00000-0  24514-4 0  9995
2 28480  98.1757 236.2013 0142240  10.5777  97.5016 14.25586495595059
ARIANE 5 R/B            
1 28499U 04049H   16119.20367580  .00000181  00000-0  29784-4 0  9992
2 28499  98.1122 192.9810 0093973 114.6036 303.5474 14.79678304612621
CZ-2D R/B               
1 28738U 05024B   16118.73668552  .00000847  00000-0  55328-4 0  9994
2 28738  97.5472 156.5678 0012247   0.9786 359.1465 15.10453381593065
SUZAKU (ASTRO-EII)      
1 28773U 05025A   16119.38302956  .00001727  00000-0  86618-4 0  9993
2 28773  31.3822 104.0571 0004781 150.3781 209.7137 15.14645258594380
ALOS (DAICHI)           
1 28931U 06002A   16118.91857416  .00000111  00000-0  30782-4 0  9996
2 28931  97.8886 159.9756 0001685 123.0507 237.0858 14.62171934546771
H-2A R/B                
1 28932U 06002B   16118.84133769  .00000343  00000-0  38855-4 0  9993
2 28932  98.2192  19.0671 0089789 231.4050 175.8355 14.90832892555800
AKARI (ASTRO-F)         
1 28939U 06005A   16118.92905132  .00007324  00000-0  24515-3 0  9996
2 28939  98.2348 270.4655 0116107 182.4842 177.5832 15.24988962549725
RESURS-DK 1             
1 29228U 06021A   16119.35216835  .00000251  00000-0  26650-4 0  9994
2 29228  69.9372  73.2974 0007725 258.5402 101.4890 15.01873746545818
GENESIS 1               
1 29252U 06029A   16119.52599981  .00001637  00000-0  83649-4 0  9994
2 29252  64.5069 198.9462 0034449 232.6729 127.1750 15.15905671538960
CZ-4B R/B               
1 29507U 06046C   16118.91966354 -.00000038  00000-0  20435-5 0  9990
2 29507  97.7840 120.2173 0038930 224.7713 135.0366 14.99674199518743
CZ-2C R/B               
1 31114U 07010B   16118.87621897  .00000037  00000-0  36598-4 0  9998
2 31114  98.4151  36.4105 0059480 342.0781  17.8298 14.19200903468596
COSMO-SKYMED 1          
1 31598U 07023A   16119.39020759 -.00000220  00000-0 -21068-4 0  9998
2 31598  97.8768 303.5871 0001499  86.2116 273.9279 14.82153136481003
GENESIS 2               
1 31789U 07028A   16119.63294381  .00001269  00000-0  64855-4 0  9999
2 31789  64.5059 235.0972 0053003 273.4250  86.1315 15.15154699486076
COSMOS 2428             
1 31792U 07029A   16119.38641858  .00000137  00000-0  10000-3 0  9996
2 31792  70.9460 202.6804 0007501 194.0610 262.2067 14.12395855455503
SL-16 R/B               
1 31793U 07029B   16118.73848014  .00000314  00000-0  18898-3 0  9998
2 31793  70.9754 181.8004 0001721 274.8637 223.7437 14.14358182455938
KORONAS-FOTON           
1 33504U 09003A   16118.93346854  .00001547  00000-0  82513-4 0  9996
2 33504  82.4410 285.4362 0021276 103.7939 256.5662 15.14238955398528
TIANGONG 1              
1 37820U 11053A   16119.40021286  .00015749  00000-0  18182-3 0  9990
2 37820  42.7625 184.8453 0011983  55.3967  57.3797 15.61582875262790
CZ-3B R/B               
1 38253U 12018D   16119.56934240  .00290526  00000-0  99900-3 0  9998
2 38253  54.9608 293.8483 3682675 162.7720 214.2766  8.23067844 86828
H-2A R/B                
1 38341U 12025E   16118.73901742  .00000355  00000-0  49733-4 0  9992
2 38341  98.4851 165.3315 0057240  54.3627 306.2897 14.83281978213209
CZ-2C R/B               
1 39000U 12064D   16119.09623100  .00115280  69995-5  36040-3 0  9990
2 39000  97.2771 160.3561 0004840 141.6357 218.5261 15.91533042194127
CUSAT 2 & FALCON 9 R/B  
1 39271U 13055G   16119.37906917  .00015975  00000-0  43122-3 0  9998
2 39271  80.9711  73.7770 0660466 343.6737  14.4030 14.30523603133176
ASTRO-H (HITOMI)        
1 41337U 16012A   16119.44603919  .00000479  00000-0  32524-4 0  9992
2 41337  31.0079 226.4061 0012829 266.2266  93.6901 14.98028583 10673
